#dP2022  8 20  0  0  0.00000000      97 __u+U IGS14 FIT  IAC
## 2223 518400.00000000   900.00000000 59811 0.0000000000000
+  117   C06C07C08C09C10C11C12C13C14C16C19C20C21C22C23C24C25
+        C26C27C28C29C30C32C33C34C35C36C37C38C39C40C41C42C43
+        C44C45C46E01E02E03E04E05E07E08E09E10E11E12E13E14E15
+        E18E19E21E24E25E26E27E30E31E33E34E36G01G02G03G04G05
+        G06G07G08G09G10G11G12G13G14G15G16G17G18G19G20G21G22
+        G23G24G25G26G27G28G29G30G31G32J02J03R01R02R03R04R05
+        R07R08R09R11R12R13R14R15R17R18R19R20R21R24R25  0  0
++         7  7  7  7  7  6  6  7  6  7  5  5  6  5  6  6  6
++         6  5  6  6  6  6  6  6  5  6  6  6  7  6  6  6  6
++         6  6  6  4  4  4  4  4  4  4  4  4  4  4  4  5  4
++         4  4  4  4  4  4  4  4  5  4  4  4  3  4  3  4  4
++         3  4  3  3  3  3  3  4  3  4  4  3  3  3  4  3  3
++         3  3  3  3  3  4  3  3  3  3  9  9  6  6  6  6  6
++         6  6  6  6  6  7  6  6  6  6  7  7  6  6 11  0  0
%c M  cc GPS ccc cccc cccc cccc cccc ccccc ccccc ccccc ccccc
%c cc cc ccc ccc cccc cccc cccc cccc ccccc ccccc ccccc ccccc
%f  1.2500000  1.025000000  0.00000000000  0.000000000000000
%f  0.0000000  0.000000000  0.00000000000  0.000000000000000
%i    0    0    0    0      0      0      0      0         0
%i    0    0    0    0      0      0      0      0         0
/* INFORMATION & ANALYSIS CENTER (IAC)            FINAL DATA
/* S/V CLOCKS ARE ALIGNED TO GNSS TIME                      
/* G:C1WC2W R:C1PC2P E:C1XC5X C:C2IC6I J:C1CC2S             
/* PCV:IGS14_2218 OL/AL:FES2004  NONE     YN ORB:CoN CLK:CoN
*  2022 08 20 21  0  0.00000000
PC06  -3173.083351  36686.541311 -20305.959737    655.316802
PC07 -11143.037356  25591.166902  31614.264110    -29.828216
PC08 -18710.079701  35207.728073 -13997.625960    447.312233
PC09   2385.569189  39909.805552 -12183.595434   -888.964112
PC10  -2602.497818  26999.010593  32566.167330    106.372483
PC11  -4617.387831 -26036.184228  -8792.907579   -457.528884
PC12   8519.830862 -15771.651467 -21346.430955   -544.575256
PC13 -12929.509472  35515.612947 -18866.013145     58.176387
PC14  -2078.882680 -15968.061709  22799.149151    602.657908
PC16  -4978.272504  34758.949434 -22941.115250    141.930916
PC19  13131.200122  14786.121245 -19679.969971   -473.548319
PC20  -7098.572296  14824.213048 -22541.588631    191.798676
PC21  24522.227299  -5874.850920  11989.817122   -227.157702
PC22  26683.100150   6266.213611  -5330.089846   -262.282867
PC23 -16720.579463  -3887.116028 -21988.447093   -968.502826
PC24  13230.111433 -24109.791578  -4663.901777   -969.509726
PC25  -3858.403416 -19399.595706 -19680.757263   -690.047270
PC26  20314.254090 -15528.793165  11129.623170    692.339532
PC27 -14152.488079   7234.267763  22915.320339      8.359118
PC28 -18316.191692 -12178.200720  17169.451745      3.560392
PC29  12558.530531  24916.551263   -609.414431      2.528398
PC30  -1558.067165  22637.305460  16226.064866    502.283950
PC32 -24504.406060   6013.749873 -11900.222216   -756.306921
PC33 -13067.128770 -14769.048331  19736.408082   -459.536613
PC34    758.943427 -23245.863889 -15444.622094   -331.772643
PC35  18740.020643  12744.518734 -16276.007759    421.481929
PC36   2915.518923  19855.954971  19422.707400   -968.227354
PC37 -20820.685712  14078.013290 -12127.359908   -936.995067
PC38 -22709.850373  35144.743866  -5871.739898     18.552431
PC39  -7488.858933  31107.392275 -27332.155077     -0.283469
PC40 -16485.056457  18895.458345  33842.707609     -2.665467
PC41 -26495.207803  -6528.568774   5880.536160     -4.080637
PC42   8411.600139 -14611.787453  22278.074065   -149.749078
PC43 -12029.050143 -25189.489903   -136.111670      9.741024
PC44  14114.186316  -7621.594014 -22848.440805     23.942555
PC45  16804.422232   3494.519324  22009.058272    840.116901
PC46 -12103.596232  24378.072341   6257.138849   -497.287576
PE01  -5239.970671 -15887.808152 -24410.399320   -538.578091
PE02   5429.386159  15817.330701  24429.171568    319.605330
PE03  15672.472898  21911.661659 -12285.028435   -591.511180
PE04 -25707.767424 -13495.495565  -5746.723571  -1097.790909
PE05  -3813.978059  17613.656613 -23480.964142   -151.664157
PE07  20777.527844  -3145.716104  20855.192972   -698.354918
PE08  25755.456824  13361.456500   5893.704894   -584.698828
PE09 -20716.262385   3064.882440 -20911.577072   -629.907066
PE10 -16147.195004   1198.244200  24766.432256   -471.211169
PE11 -15351.005415  13143.343218  21610.540159   2555.609495
PE12 -14471.825482 -10242.145702  23696.320087   -125.664431
PE13  15422.725730 -12355.449057 -22039.322926    430.320046
PE14 -10393.785710 -22328.596156 -10316.179570  -1743.775933
PE15  14373.076596  10404.832976 -23693.647070    725.620274
PE18  23263.805798  19823.892477  -3316.186750  -1071.847446
PE19 -13468.052853 -22080.170197  14401.120473  -4754.826551
PE21  14331.029503 -19318.548554 -17245.098077   -752.977399
PE24 -27395.329812  11161.854719  -1304.157494   -791.788217
PE25 -14593.817441  19300.069625  17063.071438   -585.195351
PE26   7012.149900 -27991.265242  -6572.996281  -1518.116147
PE27  27086.189406 -11928.765172    276.064536   -372.964281
PE30  23265.258425   3197.531169  18012.306987   -770.621663
PE31 -23786.562944  -2386.969900 -17440.440578   -502.026656
PE33  -4850.716299 -26896.734690  11363.785737   -453.726384
PE34   5022.347696  26804.290299 -11541.608139     -0.412026
PE36  -7411.176777  27668.906244   7460.867143   -419.619874
PG01 -13293.712346  17701.915170  14106.280219    298.442570
PG02  15027.744203  -4559.567613 -20828.556501   -648.560514
PG03 -22395.747803  12476.311774  -6840.127340   -335.876446
PG04 -13541.546736   7814.977517 -21477.560688   -130.324109
PG05  25413.946468  -5169.382141  -6239.569764    -93.622992
PG06   7756.512759  18610.189164 -17191.794865    432.391393
PG07  -5207.568638  25763.825998     64.144294    313.347227
PG08 -19542.943701     56.107363  18104.439961    -81.298080
PG09  -2453.282820  16850.734827 -20448.485929   -305.905826
PG10  -5769.856347 -13850.798621  22070.005216   -535.088325
PG11  13728.289663   7004.603625 -21635.967201    -11.936651
PG12  23890.372172 -10190.569753  -5552.320344   -265.433216
PG13  20717.338213   9924.316176  13327.777344    371.698755
PG14   3434.171451  15055.285797  21613.137247   -108.344845
PG15  19678.945332  -2396.572207  17384.415605    -35.664072
PG16 -24342.956782  -2076.330403 -11237.264590   -521.290659
PG17  10519.553353  21587.361260  11718.068807    650.569670
PG18   5491.897459 -25912.077051    276.589555     75.423815
PG19  17218.206359  20316.611080   1598.852903    199.832309
PG20  20045.053343   3301.836810 -16983.693906    493.155355
PG21 -15344.226156   8305.800663  20437.950934    160.313245
PG22 -18468.577258 -19218.660914     76.085504    313.343928
PG23   5996.658740 -16660.296388  19747.059378    -37.521603
PG24  14180.304246 -14253.277174  16832.098609    162.217313
PG25  14231.772499 -16436.372297 -15355.367377    363.058950
PG26 -18322.637678  -6982.287840 -18143.389222    224.674698
PG27 -22377.344391 -11407.984552   9003.007792    218.242934
PG28  12617.897511  11667.114710  20697.195779    340.598422
PG29   3879.760864 -16021.032025 -20854.407715   -544.541401
PG30   2279.652522  24412.881572   9977.494545   -536.143193
PG31  -9641.555489 -16507.285503 -18375.811688   -190.381519
PG32 -14163.828482 -20713.418391   9142.734439   -209.509357
PJ02 -31340.010604  27137.131265  12657.158289     -3.488804
PJ03 -25578.163742  25846.590144  26443.161179     -0.809535
PR01 -11006.144572 -12480.355167  19326.075497     13.451332
PR02 -23844.437938  -8624.991186   3117.662918    527.479485
PR03 -21486.924971    555.159777 -13740.594912     62.208463
PR04  -7156.108403   8963.075685 -22760.766895    154.621662
PR05  10978.823549  12629.867648 -19234.038297     98.261758
PR07  20976.756138  -1038.694249  14475.461045     39.691294
PR08   6969.483311  -9203.028671  22796.396733    -66.804009
PR09  14027.143381    865.375269  21327.719592     72.285232
PR11  14904.084941 -19484.852514  -7007.672666     29.831677
PR12    524.941174 -14510.386788 -20936.493918     20.240723
PR13 -12861.862874  -2059.597490 -21938.306838    -25.929212
PR14 -19787.681384  13031.649263  -9404.047777     24.452496
PR15 -14498.755798  19414.995634   7985.539571     94.107514
PR17  -9618.214368   4887.897063  23120.484615    554.118569
PR18  -2531.303541  19993.504407  15620.815889     38.478312
PR19   4635.015063  25066.151022   1108.308068   -200.715352
PR20  10976.843083  14785.237870 -17632.040441    -76.884280
PR21   9098.766130  -6403.243045 -22954.571062   -327.169565
PR24 -11805.871510 -13782.402735  17926.710148    110.005074
PR25   3225.694472 -20430.407849 -14911.252767 999999.999999
EOF
